{
    "links": {
        "self": "http://www.neowsapp.com/rest/v1/neo/3991595?api_key=iIulBulltgU6a56xZRHN4H3l9WmuAYTsLGpBGhQ2"
    },
    "id": "3991595",
    "neo_reference_id": "3991595",
    "name": "(2020 CU2)",
    "designation": "2020 CU2",
    "nasa_jpl_url": "http://ssd.jpl.nasa.gov/sbdb.cgi?sstr=3991595",
    "absolute_magnitude_h": 27.296,
    "estimated_diameter": {
        "kilometers": {
            "estimated_diameter_min": 0.0092332581,
            "estimated_diameter_max": 0.0206461928
        },
        "meters": {
            "estimated_diameter_min": 9.2332581194,
            "estimated_diameter_max": 20.6461928089
        },
        "miles": {
            "estimated_diameter_min": 0.0057372788,
            "estimated_diameter_max": 0.0128289455
        },
        "feet": {
            "estimated_diameter_min": 30.2928425686,
            "estimated_diameter_max": 67.736855215
        }
    },
    "is_potentially_hazardous_asteroid": false,
    "close_approach_data": [
        {
            "close_approach_date": "2020-02-19",
            "close_approach_date_full": "2020-Feb-19 23:47",
            "epoch_date_close_approach": 1582156020000,
            "relative_velocity": {
                "kilometers_per_second": "8.267746171",
                "kilometers_per_hour": "29763.8862154779",
                "miles_per_hour": "18494.121409834"
            },
            "miss_distance": {
                "astronomical": "0.0337771563",
                "lunar": "13.1393138007",
                "kilometers": "5052990.637137081",
                "miles": "3139782.7882544778"
            },
            "orbiting_body": "Earth"
        }
    ],
    "orbital_data": {
        "orbit_id": "2",
        "orbit_determination_date": "2020-02-19 09:41:39",
        "first_observation_date": "2020-02-15",
        "last_observation_date": "2020-02-19",
        "data_arc_in_days": 4,
        "observations_used": 23,
        "orbit_uncertainty": "8",
        "minimum_orbit_intersection": ".0337714",
        "jupiter_tisserand_invariant": "3.788",
        "epoch_osculation": "2458895.5",
        "eccentricity": ".465865170546954",
        "semi_major_axis": "1.902993625458748",
        "inclination": "10.14473645883918",
        "ascending_node_longitude": "147.007305860867",
        "orbital_period": "958.8582894711961",
        "perihelion_distance": "1.016455175584642",
        "perihelion_argument": "12.61840164373096",
        "aphelion_distance": "2.789532075332854",
        "perihelion_time": "2458907.271396727721",
        "mean_anomaly": "355.5804701606985",
        "mean_motion": ".3754465117035569",
        "equinox": "J2000",
        "orbit_class": {
            "orbit_class_type": "APO",
            "orbit_class_description": "Near-Earth asteroid orbits which cross the Earth’s orbit similar to that of 1862 Apollo",
            "orbit_class_range": "a (semi-major axis) > 1.0 AU; q (perihelion) < 1.017 AU"
        }
    },
    "is_sentry_object": false
}